#cP2022  3 25  6  0  0.00000000     576 d+D   IGb14 EXT AIUB
## 2202 453600.00000000   300.00000000 59663 0.2500000000000
+   76   G01G02G03G04G05G06G07G08G09G10G11G12G13G14G15G16G17
+        G18G19G21G22G23G24G25G26G27G28G29G30G31G32R01R02R03
+        R04R05R07R08R09R12R13R14R15R17R18R19R20R21R22R24E01
+        E02E03E04E05E07E08E09E10E11E12E13E14E15E18E19E21E24
+        E25E26E27E30E31E33E34E36  0  0  0  0  0  0  0  0  0
++         6  7  6  8  7  6  7  6  5  6  8  7  7  7  7  7  7
++         8  7  7  8  7  6  6  5  6  7  7  6  7  6  8  6  7
++         7  7  7  6  7  7  8  7  7  8  7  9  9  8  7  8  6
++         6  7  6  6  6  6  6  7  6  7  6  7  7  6  7  6  7
++         6  6  6  7  5  6  8  6  0  0  0  0  0  0  0  0  0
%c M  cc GPS ccc cccc cccc cccc cccc ccccc ccccc ccccc ccccc
%c cc cc ccc ccc cccc cccc cccc cccc ccccc ccccc ccccc ccccc
%f  1.2500000  1.025000000  0.00000000000  0.000000000000000
%f  0.0000000  0.000000000  0.00000000000  0.000000000000000
%i    0    0    0    0      0      0      0      0         0
%i    0    0    0    0      0      0      0      0         0
/* Center for Orbit Determination in Europe (CODE)          
/* Ultra-rapid GRE orbits starting year-day 22084 06 hour   
/* Observed/predicted: 25/23 hours (data used up to 085G)   
/* PCV:IGS14      OL/AL:FES2014b NONE     YN ORB:CoN CLK:BRD
*  2022  3 26  7 30  0.00000000
PG01 -13050.564354  14652.269293  17440.102900    399.949890               P   P
PG02  13965.793543   8323.446862 -20317.746187   -652.648022               P   P
PG03 -22707.129151  13221.116945  -3540.287901   -179.977401               P   P
PG04 -15729.082262   6084.322245 -20530.478939   -180.908498               P   P
PG05  23803.219979  -3051.998137 -11706.909282    -76.012646               P   P
PG06   6112.179683  22618.496812 -12366.480102    244.206568               P   P
PG07  -5394.120069  25319.519320  -4208.923415    317.815587               P   P
PG08 -22080.494854  -2478.708645  14780.255170    -61.346896               P   P
PG09  -5102.606437  14890.710429 -21455.365069   -347.643137               P   P
PG10  -1709.498518 -15475.748929  21625.486815   -358.537356               P   P
PG11  13347.368806   9488.941200 -20918.501868    -55.338399               P   P
PG12  24596.203924  -9826.274994   -620.377764   -190.605053               P   P
PG13  22013.631198  11640.225980   9320.760871    283.201145               P   P
PG14     65.406558  16180.216839  21044.554354    -97.333244               P   P
PG15  22139.277883   -515.111635  14482.261145    -73.891470               P   P
PG16 -22298.746071  -2759.114753 -14790.215117   -484.888357               P   P
PG17   9879.487809  20274.779574  14418.227716    592.147321               P   P
PG18   6052.236951 -25353.250289  -4806.730110    211.039488               P   P
PG19  15857.839016  20153.615846   7026.662854    135.969840               P   P
PG21 -15434.709716   3016.407013  22004.350879    159.814002               P   P
PG22 -17609.213821 -19423.488492   5234.877668    233.338473               P   P
PG23  10275.406723 -17929.485648  16621.665922     -9.925382               P   P
PG24  14327.955247 -10634.246640  19251.864246    264.283055               P   P
PG25  16430.057112 -17089.636559 -11974.532336    303.428306               P   P
PG26 -13387.476293 -10106.783275 -20736.475473    193.753409               P   P
PG27 -23261.018720 -12247.557588   4870.010287    165.795217               P   P
PG28   8837.561173  12883.217703  21972.919401    374.888556               P   P
PG29   7486.763156 -12897.968458 -22024.916908   -495.756705               P   P
PG30    119.424439  26144.486338   3926.600788   -520.662597               P   P
PG31  -7946.941330 -20673.229599 -14434.421125   -170.605153               P   P
PG32 -13815.693424 -19593.353274  11771.969196    -92.245687               P   P
PR01   5734.336838  11476.072604 -22042.965562      7.373663               P   P
PR02  22487.258888   7994.816396  -8870.105440    513.624428               P   P
PR03  24009.185067   -286.048902   8579.969321     53.772072               P   P
PR04  12119.717028  -7971.567540  21011.964079    133.671519               P   P
PR05  -6425.790235 -11448.174637  21890.888469     90.028853               P   P
PR07 -23828.596724    540.531673  -9107.626446     33.107041               P   P
PR08 -12047.237094   8105.960000 -20917.093703    -64.239282               P   P
PR09 -10486.323055  -4820.708162 -22729.881255     46.359201               P   P
PR12  -3477.435045  17955.648026  17811.241562     17.597298               P   P
PR13   9497.237208   5718.241619  22952.270168    -19.967292               P   P
PR14  17818.991078 -11077.903644  14521.753831     75.805890               P   P
PR15  15149.794788 -20413.480344  -2087.915556     97.291162               P   P
PR17  11273.901235    492.485516 -22871.552611    512.533479               P   P
PR18   3455.955489 -15992.791621 -19577.641673    111.509169               P   P
PR19  -4841.952392 -24030.062027  -7065.586407   -182.998035               P   P
PR20 -12228.829782 -18272.587463  12982.842684    -67.422204               P   P
PR21 -10706.841130   1026.200022  23127.393956   -288.285730               P   P
PR22  -3086.018517  16525.968247  19127.551942   -172.937704               P   P
PR24  12991.511430  17362.682892 -13421.352413     86.131331               P   P
PE01  16778.413153   7979.692801  23036.153781   -604.043213               P   P
PE02 -16937.424518  -7839.920309 -22986.446889    288.694380               P   P
PE03 -24774.578667 -15809.353480   3486.790406   -541.301886               P   P
PE04  25856.128644   2248.587406  14242.284570   -992.679086               P   P
PE05  -9100.832528 -20330.921474  19500.395981   -196.842940               P   P
PE07 -11629.887090  12956.260729 -23928.304003   -652.124195               P   P
PE08 -25687.001762  -1950.902328 -14565.349091   -501.496068               P   P
PE09  11330.253943 -12999.558121  24066.609999   -462.197673               P   P
PE10  13564.137294 -14318.286311 -22078.787120   -502.755658               P   P
PE11   9009.658477 -23585.477719 -15476.589983   4132.230310               P   P
PE12  15941.871949  -3260.462829 -24727.515620   4694.794398               P   P
PE13  -9266.043961  23081.907461  16042.446564    427.567061               P   P
PE14  17787.847547 -11476.765310 -24212.523983  -1791.475091               P   P
PE15 -15879.210713   3075.587862  24796.087643    755.532518               P   P
PE18  -5789.989175  14917.243054  18330.046303  -1639.897071               P   P
PE19  23527.389641  16993.950858  -5796.182961  -1944.474536               P   P
PE21  -1453.600552  19063.462421  22593.793666   -724.722164               P   P
PE24  20820.475431 -19428.989187  -8039.394949   -525.962002               P   P
PE25   1710.772611 -19151.014876 -22501.835853   -568.125054               P   P
PE26   3286.782260  29256.121923  -3041.590913   -956.027106               P   P
PE27 -19938.727361  19881.679975   9151.380239   -261.688526               P   P
PE30 -26499.743841   8063.022333 -10478.714017   -378.996616               P   P
PE31  26527.399216  -8987.790248   9564.528263   -494.091365               P   P
PE33  13097.803609  18635.436291 -18889.779581   -458.212036               P   P
PE34 -13206.954942 -18437.214352  19017.360451   -508.729364               P   P
PE36  -2750.439974 -29407.235333   2084.288886   -350.610135               P   P
EOF
